*******************************************************************************
Ephemeris / WWW_USER Mon Jul 15 19:01:26 2024 Pasadena, USA      / Horizons    
*******************************************************************************
Target body name: (2018 RP1)                      {source: JPL#4}
Center body name: Earth (399)                     {source: DE441}
Center-site name: Gemini South Obs., Cerro Pachon
*******************************************************************************
Start time      : A.D. 2018-Oct-07 22:56:00.0000 UT      
Stop  time      : A.D. 2018-Oct-08 10:04:00.0000 UT      
Step-size       : 1 minutes
*******************************************************************************
Target pole/equ : undefined
Target radii    : undefined                                                    
Center geodetic : 289.2634, -30.2406227, 2.71233  {E-lon(deg),Lat(deg),Alt(km)}
Center cylindric: 289.2634,5517.21435,-3194.81213 {E-lon(deg),Dxy(km),Dz(km)}
Center pole/equ : ITRF93                          {East-longitude positive}
Center radii    : 6378.137, 6378.137, 6356.752 km {Equator_a, b, pole_c}       
Target primary  : Sun
Vis. interferer : MOON (R_eq= 1737.400) km        {source: DE441}
Rel. light bend : Sun                             {source: DE441}
Rel. lght bnd GM: 1.3271E+11 km^3/s^2                                          
Small-body perts: Yes                             {source: SB441-N16}
Atmos refraction: NO (AIRLESS)
RA format       : HMS
Time format     : CAL 
Calendar mode   : Mixed Julian/Gregorian
RTS-only print  : NO       
EOP file        : eop.240715.p241008                                           
EOP coverage    : DATA-BASED 1962-JAN-20 TO 2024-JUL-15. PREDICTS-> 2024-OCT-07
Units conversion: 1 au= 149597870.700 km, c= 299792.458 km/s, 1 day= 86400.0 s 
Table cut-offs 1: Elevation (-90.0deg=NO ),Airmass (>38.000=NO), Daylight (YES)
Table cut-offs 2: Solar elongation (  0.0,180.0=NO ),Local Hour Angle( 0.0=NO )
Table cut-offs 3: RA/DEC angular rate (     0.0=NO )                           
*******************************************************************************
Initial IAU76/J2000 heliocentric ecliptic osculating elements (au, days, deg.):
  EPOCH=  2458376.5 ! 2018-Sep-15.00 (TDB)         Residual RMS= .12525        
   EC= .3382936082205208   QR= .9576766169446216   TP= 2458412.3293739939      
   OM= 161.903422202901    W=  234.5704247756858   IN= 9.466091569921099       
  Equivalent ICRF heliocentric cartesian coordinates (au, au/d):
   X= 1.017940821946709E+00  Y=-7.278189102440286E-02  Z=-7.249995171787897E-02
  VX=-1.754817228708964E-03 VY= 1.862872143473751E-02 VZ= 4.887370356508847E-03
Asteroid physical parameters (km, seconds, rotational period in hours):        
   GM= n.a.                RAD= n.a.               ROTPER= n.a.                
   H= 24.3                 G= .150                 B-V= n.a.                   
                           ALBEDO= n.a.            STYP= n.a.                  
*******************************************************************************
 Date__(UT)__HR:MN     R.A._________(ICRF)_________DEC
******************************************************
$$SOE
 2018-Oct-08 00:59     07 56 47.649942 -22 01 08.47314
 2018-Oct-08 01:00     07 56 47.824479 -22 01 08.50274
 2018-Oct-08 01:01     07 56 47.998985 -22 01 08.53266
 2018-Oct-08 01:02     07 56 48.173459 -22 01 08.56291
 2018-Oct-08 01:03     07 56 48.347903 -22 01 08.59348
 2018-Oct-08 01:04     07 56 48.522314 -22 01 08.62438
 2018-Oct-08 01:05     07 56 48.696693 -22 01 08.65560
 2018-Oct-08 01:06     07 56 48.871041 -22 01 08.68714
 2018-Oct-08 01:07     07 56 49.045355 -22 01 08.71901
 2018-Oct-08 01:08     07 56 49.219637 -22 01 08.75120
 2018-Oct-08 01:09     07 56 49.393885 -22 01 08.78371
 2018-Oct-08 01:10     07 56 49.568100 -22 01 08.81654
 2018-Oct-08 01:11     07 56 49.742282 -22 01 08.84969
 2018-Oct-08 01:12     07 56 49.916429 -22 01 08.88316
 2018-Oct-08 01:13     07 56 50.090543 -22 01 08.91695
 2018-Oct-08 01:14     07 56 50.264622 -22 01 08.95106
 2018-Oct-08 01:15     07 56 50.438666 -22 01 08.98548
 2018-Oct-08 01:16     07 56 50.612675 -22 01 09.02022
 2018-Oct-08 01:17     07 56 50.786648 -22 01 09.05528
 2018-Oct-08 01:18     07 56 50.960586 -22 01 09.09065
 2018-Oct-08 01:19     07 56 51.134489 -22 01 09.12633
 2018-Oct-08 01:20     07 56 51.308355 -22 01 09.16233
 2018-Oct-08 01:21     07 56 51.482185 -22 01 09.19865
 2018-Oct-08 01:22     07 56 51.655978 -22 01 09.23527
 2018-Oct-08 01:23     07 56 51.829734 -22 01 09.27221
 2018-Oct-08 01:24     07 56 52.003453 -22 01 09.30946
 2018-Oct-08 01:25     07 56 52.177134 -22 01 09.34702
 2018-Oct-08 01:26     07 56 52.350778 -22 01 09.38489
 2018-Oct-08 01:27     07 56 52.524384 -22 01 09.42306
 2018-Oct-08 01:28     07 56 52.697952 -22 01 09.46155
 2018-Oct-08 01:29     07 56 52.871481 -22 01 09.50034
 2018-Oct-08 01:30     07 56 53.044971 -22 01 09.53944
 2018-Oct-08 01:31     07 56 53.218422 -22 01 09.57884
 2018-Oct-08 01:32     07 56 53.391834 -22 01 09.61855
 2018-Oct-08 01:33     07 56 53.565207 -22 01 09.65857
 2018-Oct-08 01:34     07 56 53.738539 -22 01 09.69888
 2018-Oct-08 01:35     07 56 53.911832 -22 01 09.73950
 2018-Oct-08 01:36     07 56 54.085084 -22 01 09.78042
 2018-Oct-08 01:37     07 56 54.258296 -22 01 09.82165
 2018-Oct-08 01:38     07 56 54.431466 -22 01 09.86317
 2018-Oct-08 01:39     07 56 54.604596 -22 01 09.90499
 2018-Oct-08 01:40     07 56 54.777684 -22 01 09.94711
 2018-Oct-08 01:41     07 56 54.950731 -22 01 09.98953
 2018-Oct-08 01:42     07 56 55.123736 -22 01 10.03224
 2018-Oct-08 01:43     07 56 55.296698 -22 01 10.07525
 2018-Oct-08 01:44     07 56 55.469619 -22 01 10.11856
 2018-Oct-08 01:45     07 56 55.642496 -22 01 10.16216
 2018-Oct-08 01:46     07 56 55.815331 -22 01 10.20605
 2018-Oct-08 01:47     07 56 55.988123 -22 01 10.25024
 2018-Oct-08 01:48     07 56 56.160871 -22 01 10.29472
 2018-Oct-08 01:49     07 56 56.333575 -22 01 10.33949
 2018-Oct-08 01:50     07 56 56.506236 -22 01 10.38455
 2018-Oct-08 01:51     07 56 56.678853 -22 01 10.42989
 2018-Oct-08 01:52     07 56 56.851425 -22 01 10.47553
 2018-Oct-08 01:53     07 56 57.023953 -22 01 10.52145
 2018-Oct-08 01:54     07 56 57.196435 -22 01 10.56766
 2018-Oct-08 01:55     07 56 57.368873 -22 01 10.61416
 2018-Oct-08 01:56     07 56 57.541265 -22 01 10.66094
 2018-Oct-08 01:57     07 56 57.713612 -22 01 10.70800
 2018-Oct-08 01:58     07 56 57.885913 -22 01 10.75534
 2018-Oct-08 01:59     07 56 58.058167 -22 01 10.80297
 2018-Oct-08 02:00     07 56 58.230376 -22 01 10.85088
 2018-Oct-08 02:01     07 56 58.402538 -22 01 10.89907
 2018-Oct-08 02:02     07 56 58.574653 -22 01 10.94754
 2018-Oct-08 02:03     07 56 58.746721 -22 01 10.99628
 2018-Oct-08 02:04     07 56 58.918741 -22 01 11.04530
 2018-Oct-08 02:05     07 56 59.090714 -22 01 11.09460
 2018-Oct-08 02:06     07 56 59.262640 -22 01 11.14417
 2018-Oct-08 02:07     07 56 59.434517 -22 01 11.19402
 2018-Oct-08 02:08     07 56 59.606347 -22 01 11.24414
 2018-Oct-08 02:09     07 56 59.778127 -22 01 11.29453
 2018-Oct-08 02:10     07 56 59.949859 -22 01 11.34520
 2018-Oct-08 02:11     07 57 00.121542 -22 01 11.39613
 2018-Oct-08 02:12     07 57 00.293176 -22 01 11.44733
 2018-Oct-08 02:13     07 57 00.464761 -22 01 11.49881
 2018-Oct-08 02:14     07 57 00.636296 -22 01 11.55054
 2018-Oct-08 02:15     07 57 00.807781 -22 01 11.60255
 2018-Oct-08 02:16     07 57 00.979216 -22 01 11.65482
 2018-Oct-08 02:17     07 57 01.150601 -22 01 11.70735
 2018-Oct-08 02:18     07 57 01.321935 -22 01 11.76015
 2018-Oct-08 02:19     07 57 01.493219 -22 01 11.81321
 2018-Oct-08 02:20     07 57 01.664451 -22 01 11.86652
 2018-Oct-08 02:21     07 57 01.835632 -22 01 11.92010
 2018-Oct-08 02:22     07 57 02.006762 -22 01 11.97394
 2018-Oct-08 02:23     07 57 02.177840 -22 01 12.02804
 2018-Oct-08 02:24     07 57 02.348867 -22 01 12.08239
 2018-Oct-08 02:25     07 57 02.519841 -22 01 12.13700
 2018-Oct-08 02:26     07 57 02.690763 -22 01 12.19186
 2018-Oct-08 02:27     07 57 02.861633 -22 01 12.24698
 2018-Oct-08 02:28     07 57 03.032449 -22 01 12.30235
 2018-Oct-08 02:29     07 57 03.203213 -22 01 12.35797
 2018-Oct-08 02:30     07 57 03.373924 -22 01 12.41384
 2018-Oct-08 02:31     07 57 03.544581 -22 01 12.46996
 2018-Oct-08 02:32     07 57 03.715185 -22 01 12.52632
 2018-Oct-08 02:33     07 57 03.885734 -22 01 12.58294
 2018-Oct-08 02:34     07 57 04.056230 -22 01 12.63980
 2018-Oct-08 02:35     07 57 04.226672 -22 01 12.69690
 2018-Oct-08 02:36     07 57 04.397059 -22 01 12.75425
 2018-Oct-08 02:37     07 57 04.567391 -22 01 12.81184
 2018-Oct-08 02:38     07 57 04.737669 -22 01 12.86967
 2018-Oct-08 02:39     07 57 04.907892 -22 01 12.92774
 2018-Oct-08 02:40     07 57 05.078059 -22 01 12.98606
 2018-Oct-08 02:41     07 57 05.248171 -22 01 13.04460
 2018-Oct-08 02:42     07 57 05.418227 -22 01 13.10339
 2018-Oct-08 02:43     07 57 05.588227 -22 01 13.16241
 2018-Oct-08 02:44     07 57 05.758171 -22 01 13.22167
 2018-Oct-08 02:45     07 57 05.928059 -22 01 13.28116
 2018-Oct-08 02:46     07 57 06.097891 -22 01 13.34088
 2018-Oct-08 02:47     07 57 06.267665 -22 01 13.40083
 2018-Oct-08 02:48     07 57 06.437383 -22 01 13.46101
 2018-Oct-08 02:49     07 57 06.607044 -22 01 13.52142
 2018-Oct-08 02:50     07 57 06.776648 -22 01 13.58206
 2018-Oct-08 02:51     07 57 06.946194 -22 01 13.64292
 2018-Oct-08 02:52     07 57 07.115682 -22 01 13.70401
 2018-Oct-08 02:53     07 57 07.285112 -22 01 13.76532
 2018-Oct-08 02:54     07 57 07.454485 -22 01 13.82685
 2018-Oct-08 02:55     07 57 07.623799 -22 01 13.88861
 2018-Oct-08 02:56     07 57 07.793055 -22 01 13.95059
 2018-Oct-08 02:57     07 57 07.962252 -22 01 14.01278
 2018-Oct-08 02:58     07 57 08.131391 -22 01 14.07519
 2018-Oct-08 02:59     07 57 08.300470 -22 01 14.13782
 2018-Oct-08 03:00     07 57 08.469490 -22 01 14.20067
 2018-Oct-08 03:01     07 57 08.638451 -22 01 14.26373
